STARLINK-1014
1 24720C 19074H   21325.11371676  .00005870  00000-0  39337-3 0  3254
2 24720  53.0545  32.7232 0001116  68.7431 149.5828 15.06384138    15
